EUTELSAT QUANTUM        
1 49056U 21069B   25295.48777020  .00000000  00000+0  00000+0 0  9998
2 49056   0.0186  77.2677 0002642 154.9504  22.2448  1.00273516 15541
EUTELSAT KONNECT VHTS   
1 53765U 22110A   25295.26477576  .00000026  00000+0  00000+0 0  9995
2 53765   0.0597  92.9710 0002567  96.5068 299.5064  1.00270668  4448
EUTELSAT HOTBIRD 13F    
1 54048U 22134A   25295.33818279  .00000097  00000+0  00000+0 0  9991
2 54048   0.0544 283.9151 0002052  82.0700 159.7902  1.00273259 10992
EUTELSAT HOTBIRD 13G    
1 54225U 22146A   25295.26676911  .00000096  00000+0  00000+0 0  9997
2 54225   0.0450 237.0399 0001983 297.4785 325.4687  1.00272310  5089
EUTELSAT 10B            
1 54259U 22157A   25295.26616244  .00000077  00000+0  00000+0 0  9998
2 54259   0.0620  90.6311 0001608  41.3074   4.8218  1.00272222 10641
EUTELSAT 36D            
1 59346U 24059A   25295.48534352  .00000165  00000+0  00000+0 0  9994
2 59346   0.0202 239.8185 0000160 210.2188 151.7059  1.00273525  5769
